{
  "type": "FeatureCollection",
  "features": [
    {
      "type": "Feature",
      "properties": {
        "norad_id": 38867,
        "name": "INTELSAT 23 (IS-23)",
        "group": "intelsat",
        "lat": -0.020792686121198275,
        "lon": -104.0352730629689,
        "alt_km": 35784.63823593161,
        "timestamp": "2025-12-20T14:38:01.626390+00:00",
        "meta_object_name": "INTELSAT 23 (IS-23)",
        "meta_object_id": "2012-057A",
        "meta_epoch": "2025-12-20T04:25:06.747168",
        "meta_mean_motion": 1.00270135,
        "meta_eccentricity": 5.904e-05,
        "meta_inclination": 0.015,
        "meta_ra_of_asc_node": 60.0078,
        "meta_arg_of_pericenter": 234.4804,
        "meta_mean_anomaly": 167.8446,
        "meta_ephemeris_type": 0,
        "meta_classification_type": "U",
        "meta_norad_cat_id": 38867,
        "meta_element_set_no": 999,
        "meta_rev_at_epoch": 4816,
        "meta_bstar": 0,
        "meta_mean_motion_dot": -2.61e-06,
        "meta_mean_motion_ddot": 0,
        "tle_line1": "1 38867U 12057A   25354.18410587 -.00000261  00000+0  00000+0 0  9998",
        "tle_line2": "2 38867   0.0150  60.0078 0000590 234.4804 167.8446  1.00270135 48164"
      },
      "geometry": {
        "type": "Point",
        "coordinates": [
          -104.0352730629689,
          -0.020792686121198275
        ]
      }
    },
    {
      "type": "Feature",
      "properties": {
        "norad_id": 39360,
        "name": "FM-6",
        "group": "intelsat",
        "lat": 0.006468120646026546,
        "lon": -167.21950373231226,
        "alt_km": 35774.727727788486,
        "timestamp": "2025-12-20T14:38:01.626414+00:00",
        "meta_object_name": "FM-6",
        "meta_object_id": "2013-058A",
        "meta_epoch": "2025-12-19T13:17:47.071392",
        "meta_mean_motion": 1.00268723,
        "meta_eccentricity": 0.0003035,
        "meta_inclination": 0.0116,
        "meta_ra_of_asc_node": 64.371,
        "meta_arg_of_pericenter": 111.3977,
        "meta_mean_anomaly": 355.921,
        "meta_ephemeris_type": 0,
        "meta_classification_type": "U",
        "meta_norad_cat_id": 39360,
        "meta_element_set_no": 999,
        "meta_rev_at_epoch": 4427,
        "meta_bstar": 0,
        "meta_mean_motion_dot": 8e-08,
        "meta_mean_motion_ddot": 0,
        "tle_line1": "1 39360U 13058A   25353.55401703  .00000008  00000+0  00000+0 0  9997",
        "tle_line2": "2 39360   0.0116  64.3710 0003035 111.3977 355.9210  1.00268723 44273"
      },
      "geometry": {
        "type": "Point",
        "coordinates": [
          -167.21950373231226,
          0.006468120646026546
        ]
      }
    },
    {
      "type": "Feature",
      "properties": {
        "norad_id": 40271,
        "name": "INTELSAT 30 (IS-30)",
        "group": "intelsat",
        "lat": -0.013758723130426646,
        "lon": -146.09999842115198,
        "alt_km": 35790.03026329651,
        "timestamp": "2025-12-20T14:38:01.626428+00:00",
        "meta_object_name": "INTELSAT 30 (IS-30)",
        "meta_object_id": "2014-062A",
        "meta_epoch": "2025-12-19T19:39:22.686048",
        "meta_mean_motion": 1.00270758,
        "meta_eccentricity": 0.00016331,
        "meta_inclination": 0.0146,
        "meta_ra_of_asc_node": 25.4584,
        "meta_arg_of_pericenter": 66.8545,
        "meta_mean_anomaly": 196.1418,
        "meta_ephemeris_type": 0,
        "meta_classification_type": "U",
        "meta_norad_cat_id": 40271,
        "meta_element_set_no": 999,
        "meta_rev_at_epoch": 499,
        "meta_bstar": 0,
        "meta_mean_motion_dot": -1.26e-06,
        "meta_mean_motion_ddot": 0,
        "tle_line1": "1 40271U 14062A   25353.81901257 -.00000126  00000+0  00000+0 0  9996",
        "tle_line2": "2 40271   0.0146  25.4584 0001633  66.8545 196.1418  1.00270758  4994"
      },
      "geometry": {
        "type": "Point",
        "coordinates": [
          -146.09999842115198,
          -0.013758723130426646
        ]
      }
    },
    {
      "type": "Feature",
      "properties": {
        "norad_id": 40333,
        "name": "DIRECTV 14",
        "group": "intelsat",
        "lat": -0.030069572734579077,
        "lon": -150.2747053705413,
        "alt_km": 35785.67371713723,
        "timestamp": "2025-12-20T14:38:01.626441+00:00",
        "meta_object_name": "DIRECTV 14",
        "meta_object_id": "2014-078B",
        "meta_epoch": "2025-12-20T06:03:31.239360",
        "meta_mean_motion": 1.00270878,
        "meta_eccentricity": 3.999e-05,
        "meta_inclination": 0.0187,
        "meta_ra_of_asc_node": 343.1399,
        "meta_arg_of_pericenter": 160.6379,
        "meta_mean_anomaly": 296.9753,
        "meta_ephemeris_type": 0,
        "meta_classification_type": "U",
        "meta_norad_cat_id": 40333,
        "meta_element_set_no": 999,
        "meta_rev_at_epoch": 4025,
        "meta_bstar": 0,
        "meta_mean_motion_dot": -1.02e-06,
        "meta_mean_motion_ddot": 0,
        "tle_line1": "1 40333U 14078B   25354.25244490 -.00000102  00000+0  00000+0 0  9994",
        "tle_line2": "2 40333   0.0187 343.1399 0000399 160.6379 296.9753  1.00270878 40251"
      },
      "geometry": {
        "type": "Point",
        "coordinates": [
          -150.2747053705413,
          -0.030069572734579077
        ]
      }
    },
    {
      "type": "Feature",
      "properties": {
        "norad_id": 40663,
        "name": "DIRECTV 15",
        "group": "intelsat",
        "lat": -0.027817871320511844,
        "lon": -153.92864911473959,
        "alt_km": 35786.092242435894,
        "timestamp": "2025-12-20T14:38:01.626453+00:00",
        "meta_object_name": "DIRECTV 15",
        "meta_object_id": "2015-026A",
        "meta_epoch": "2025-12-19T19:37:07.901184",
        "meta_mean_motion": 1.00271591,
        "meta_eccentricity": 2.084e-05,
        "meta_inclination": 0.0174,
        "meta_ra_of_asc_node": 339.1795,
        "meta_arg_of_pericenter": 140.8553,
        "meta_mean_anomaly": 160.0394,
        "meta_ephemeris_type": 0,
        "meta_classification_type": "U",
        "meta_norad_cat_id": 40663,
        "meta_element_set_no": 999,
        "meta_rev_at_epoch": 3866,
        "meta_bstar": 0,
        "meta_mean_motion_dot": -7.8e-07,
        "meta_mean_motion_ddot": 0,
        "tle_line1": "1 40663U 15026A   25353.81745256 -.00000078  00000+0  00000+0 0  9993",
        "tle_line2": "2 40663   0.0174 339.1795 0000208 140.8553 160.0394  1.00271591 38668"
      },
      "geometry": {
        "type": "Point",
        "coordinates": [
          -153.92864911473959,
          -0.027817871320511844
        ]
      }
    },
    {
      "type": "Feature",
      "properties": {
        "norad_id": 40664,
        "name": "SKY MEXICO-1",
        "group": "intelsat",
        "lat": -0.035556394167810854,
        "lon": -129.84315620063654,
        "alt_km": 35780.43673520794,
        "timestamp": "2025-12-20T14:38:01.626465+00:00",
        "meta_object_name": "SKY MEXICO-1",
        "meta_object_id": "2015-026B",
        "meta_epoch": "2025-12-20T02:35:02.289696",
        "meta_mean_motion": 1.00272052,
        "meta_eccentricity": 0.00023206,
        "meta_inclination": 0.0136,
        "meta_ra_of_asc_node": 336.9823,
        "meta_arg_of_pericenter": 308.4655,
        "meta_mean_anomaly": 123.498,
        "meta_ephemeris_type": 0,
        "meta_classification_type": "U",
        "meta_norad_cat_id": 40664,
        "meta_element_set_no": 999,
        "meta_rev_at_epoch": 3865,
        "meta_bstar": 0,
        "meta_mean_motion_dot": -2.1e-06,
        "meta_mean_motion_ddot": 0,
        "tle_line1": "1 40664U 15026B   25354.10766539 -.00000210  00000+0  00000+0 0  9992",
        "tle_line2": "2 40664   0.0136 336.9823 0002320 308.4655 123.4980  1.00272052 38652"
      },
      "geometry": {
        "type": "Point",
        "coordinates": [
          -129.84315620063654,
          -0.035556394167810854
        ]
      }
    },
    {
      "type": "Feature",
      "properties": {
        "norad_id": 40874,
        "name": "INTELSAT 34 (IS-34)",
        "group": "intelsat",
        "lat": -0.042604197228698716,
        "lon": -106.55590853623377,
        "alt_km": 35786.652340048815,
        "timestamp": "2025-12-20T14:38:01.626477+00:00",
        "meta_object_name": "INTELSAT 34 (IS-34)",
        "meta_object_id": "2015-039A",
        "meta_epoch": "2025-12-19T19:50:51.586080",
        "meta_mean_motion": 1.00272065,
        "meta_eccentricity": 6.62e-05,
        "meta_inclination": 0.0164,
        "meta_ra_of_asc_node": 342.9377,
        "meta_arg_of_pericenter": 169.2315,
        "meta_mean_anomaly": 178.7132,
        "meta_ephemeris_type": 0,
        "meta_classification_type": "U",
        "meta_norad_cat_id": 40874,
        "meta_element_set_no": 999,
        "meta_rev_at_epoch": 3782,
        "meta_bstar": 0,
        "meta_mean_motion_dot": -2.61e-06,
        "meta_mean_motion_ddot": 0,
        "tle_line1": "1 40874U 15039A   25353.82698595 -.00000261  00000+0  00000+0 0  9999",
        "tle_line2": "2 40874   0.0164 342.9377 0000662 169.2315 178.7132  1.00272065 37824"
      },
      "geometry": {
        "type": "Point",
        "coordinates": [
          -106.55590853623377,
          -0.042604197228698716
        ]
      }
    }
  ]
}